{"type":"FeatureCollection","features":[{"type":"Feature","properties":{"name":"Granite Shield","type":"Igneous","age":"Precambrian"},"geometry":{"type":"Polygon","coordinates":[[[-10,-10],[8,-18],[24,-16],[36,-22],[44,-10],[34,4],[12,8],[0,2],[-10,-10]]]}},{"type":"Feature","properties":{"name":"Basalt Basin","type":"Volcanic","age":"Mesozoic"},"geometry":{"type":"Polygon","coordinates":[[[15,-20],[28,-12],[36,-18],[30,-30],[18,-26],[15,-20]]]}},{"type":"Feature","properties":{"name":"Cretaceous Shelf","type":"Sedimentary","age":"Cretaceous"},"geometry":{"type":"Polygon","coordinates":[[[15,32],[28,38],[34,50],[24,60],[12,54],[12,40],[15,32]]]}},{"type":"Feature","properties":{"name":"Copper Belt","type":"Ore Deposit","mineral":"Copper"},"geometry":{"type":"Polygon","coordinates":[[[-18,30],[-10,34],[-8,42],[-18,48],[-26,42],[-24,34],[-18,30]]]}},{"type":"Feature","properties":{"name":"Iron Formation","type":"Ore Deposit","mineral":"Iron"},"geometry":{"type":"Polygon","coordinates":[[[42,15],[50,18],[52,26],[44,28],[40,22],[42,15]]]}},{"type":"Feature","properties":{"name":"Coal Basin","type":"Sedimentary","resource":"Coal"},"geometry":{"type":"Polygon","coordinates":[[[50,35],[60,38],[65,48],[58,52],[48,50],[50,35]]]}}]}